{
  "type": "FeatureCollection",
  "features": [
    {
      "type": "Feature",
      "properties": {
        "norad_id": 38709,
        "name": "EXACTVIEW-1 (ADS-1B)",
        "group": "resource",
        "lat": -80.42522621554323,
        "lon": -157.30375540345884,
        "alt_km": 816.9845245559145,
        "timestamp": "2025-12-09T16:56:36.237004+00:00",
        "meta_object_name": "EXACTVIEW-1 (ADS-1B)",
        "meta_object_id": "2012-039C",
        "meta_epoch": "2025-12-09T07:16:08.074272",
        "meta_mean_motion": 14.24906039,
        "meta_eccentricity": 0.0010855,
        "meta_inclination": 98.9635,
        "meta_ra_of_asc_node": 91.6209,
        "meta_arg_of_pericenter": 4.164,
        "meta_mean_anomaly": 355.9626,
        "meta_ephemeris_type": 0,
        "meta_classification_type": "U",
        "meta_norad_cat_id": 38709,
        "meta_element_set_no": 999,
        "meta_rev_at_epoch": 69566,
        "meta_bstar": 0.00016304,
        "meta_mean_motion_dot": 3.35e-06,
        "meta_mean_motion_ddot": 0,
        "tle_line1": "1 38709U 12039C   25343.30287123  .00000335  00000+0  16304-3 0  9992",
        "tle_line2": "2 38709  98.9635  91.6209 0010855   4.1640 355.9626 14.24906039695666"
      },
      "geometry": {
        "type": "Point",
        "coordinates": [
          -157.30375540345884,
          -80.42522621554323
        ]
      }
    },
    {
      "type": "Feature",
      "properties": {
        "norad_id": 38755,
        "name": "SPOT 6",
        "group": "resource",
        "lat": -70.51139964596324,
        "lon": 72.45625550214442,
        "alt_km": 705.728160213549,
        "timestamp": "2025-12-09T16:56:36.237015+00:00",
        "meta_object_name": "SPOT 6",
        "meta_object_id": "2012-047A",
        "meta_epoch": "2025-12-09T12:20:06.085248",
        "meta_mean_motion": 14.58599459,
        "meta_eccentricity": 0.0001087,
        "meta_inclination": 98.1572,
        "meta_ra_of_asc_node": 48.3577,
        "meta_arg_of_pericenter": 95.6644,
        "meta_mean_anomaly": 264.4679,
        "meta_ephemeris_type": 0,
        "meta_classification_type": "U",
        "meta_norad_cat_id": 38755,
        "meta_element_set_no": 999,
        "meta_rev_at_epoch": 70540,
        "meta_bstar": 0.00020553,
        "meta_mean_motion_dot": 9.11e-06,
        "meta_mean_motion_ddot": 0,
        "tle_line1": "1 38755U 12047A   25343.51395932  .00000911  00000+0  20553-3 0  9994",
        "tle_line2": "2 38755  98.1572  48.3577 0001087  95.6644 264.4679 14.58599459705409"
      },
      "geometry": {
        "type": "Point",
        "coordinates": [
          72.45625550214442,
          -70.51139964596324
        ]
      }
    },
    {
      "type": "Feature",
      "properties": {
        "norad_id": 39019,
        "name": "PLEIADES 1B",
        "group": "resource",
        "lat": -6.964722894481964,
        "lon": -124.60110321931255,
        "alt_km": 701.9506328215757,
        "timestamp": "2025-12-09T16:56:36.237025+00:00",
        "meta_object_name": "PLEIADES 1B",
        "meta_object_id": "2012-068A",
        "meta_epoch": "2025-12-09T11:08:59.560800",
        "meta_mean_motion": 14.58548484,
        "meta_eccentricity": 0.0001242,
        "meta_inclination": 98.1795,
        "meta_ra_of_asc_node": 56.1681,
        "meta_arg_of_pericenter": 81.6845,
        "meta_mean_anomaly": 278.4495,
        "meta_ephemeris_type": 0,
        "meta_classification_type": "U",
        "meta_norad_cat_id": 39019,
        "meta_element_set_no": 999,
        "meta_rev_at_epoch": 69319,
        "meta_bstar": 0.00018459,
        "meta_mean_motion_dot": 8.13e-06,
        "meta_mean_motion_ddot": 0,
        "tle_line1": "1 39019U 12068A   25343.46457825  .00000813  00000+0  18459-3 0  9998",
        "tle_line2": "2 39019  98.1795  56.1681 0001242  81.6845 278.4495 14.58548484693199"
      },
      "geometry": {
        "type": "Point",
        "coordinates": [
          -124.60110321931255,
          -6.964722894481964
        ]
      }
    },
    {
      "type": "Feature",
      "properties": {
        "norad_id": 39030,
        "name": "GOKTURK 2",
        "group": "resource",
        "lat": -39.5069560822632,
        "lon": -0.8876152030414619,
        "alt_km": 651.0650715433794,
        "timestamp": "2025-12-09T16:56:36.237036+00:00",
        "meta_object_name": "GOKTURK 2",
        "meta_object_id": "2012-073A",
        "meta_epoch": "2025-12-09T12:41:39.859584",
        "meta_mean_motion": 14.75284457,
        "meta_eccentricity": 9.15e-05,
        "meta_inclination": 97.689,
        "meta_ra_of_asc_node": 185.3399,
        "meta_arg_of_pericenter": 102.3096,
        "meta_mean_anomaly": 257.8216,
        "meta_ephemeris_type": 0,
        "meta_classification_type": "U",
        "meta_norad_cat_id": 39030,
        "meta_element_set_no": 999,
        "meta_rev_at_epoch": 69654,
        "meta_bstar": 0.00016981,
        "meta_mean_motion_dot": 1.103e-05,
        "meta_mean_motion_ddot": 0,
        "tle_line1": "1 39030U 12073A   25343.52893356  .00001103  00000+0  16981-3 0  9998",
        "tle_line2": "2 39030  97.6890 185.3399 0000915 102.3096 257.8216 14.75284457696548"
      },
      "geometry": {
        "type": "Point",
        "coordinates": [
          -0.8876152030414619,
          -39.5069560822632
        ]
      }
    },
    {
      "type": "Feature",
      "properties": {
        "norad_id": 39084,
        "name": "LANDSAT 8",
        "group": "resource",
        "lat": 12.363418404942172,
        "lon": 50.01113725187073,
        "alt_km": 703.5387580668312,
        "timestamp": "2025-12-09T16:56:36.237047+00:00",
        "meta_object_name": "LANDSAT 8",
        "meta_object_id": "2013-008A",
        "meta_epoch": "2025-12-09T11:56:31.262784",
        "meta_mean_motion": 14.57109596,
        "meta_eccentricity": 0.0001118,
        "meta_inclination": 98.2076,
        "meta_ra_of_asc_node": 51.6188,
        "meta_arg_of_pericenter": 87.1914,
        "meta_mean_anomaly": 272.9412,
        "meta_ephemeris_type": 0,
        "meta_classification_type": "U",
        "meta_norad_cat_id": 39084,
        "meta_element_set_no": 999,
        "meta_rev_at_epoch": 67027,
        "meta_bstar": 0.00018726,
        "meta_mean_motion_dot": 7.98e-06,
        "meta_mean_motion_ddot": 0,
        "tle_line1": "1 39084U 13008A   25343.49758406  .00000798  00000+0  18726-3 0  9996",
        "tle_line2": "2 39084  98.2076  51.6188 0001118  87.1914 272.9412 14.57109596670274"
      },
      "geometry": {
        "type": "Point",
        "coordinates": [
          50.01113725187073,
          12.363418404942172
        ]
      }
    },
    {
      "type": "Feature",
      "properties": {
        "norad_id": 39086,
        "name": "SARAL",
        "group": "resource",
        "lat": -79.50101185285867,
        "lon": -66.59830023187024,
        "alt_km": 791.592547834819,
        "timestamp": "2025-12-09T16:56:36.237057+00:00",
        "meta_object_name": "SARAL",
        "meta_object_id": "2013-009A",
        "meta_epoch": "2025-12-09T12:21:48.650688",
        "meta_mean_motion": 14.32755536,
        "meta_eccentricity": 0.0002801,
        "meta_inclination": 98.5504,
        "meta_ra_of_asc_node": 167.4877,
        "meta_arg_of_pericenter": 114.8527,
        "meta_mean_anomaly": 245.2949,
        "meta_ephemeris_type": 0,
        "meta_classification_type": "U",
        "meta_norad_cat_id": 39086,
        "meta_element_set_no": 999,
        "meta_rev_at_epoch": 66844,
        "meta_bstar": 0.00011002,
        "meta_mean_motion_dot": 2.56e-06,
        "meta_mean_motion_ddot": 0,
        "tle_line1": "1 39086U 13009A   25343.51514642  .00000256  00000+0  11002-3 0  9993",
        "tle_line2": "2 39086  98.5504 167.4877 0002801 114.8527 245.2949 14.32755536668442"
      },
      "geometry": {
        "type": "Point",
        "coordinates": [
          -66.59830023187024,
          -79.50101185285867
        ]
      }
    },
    {
      "type": "Feature",
      "properties": {
        "norad_id": 39150,
        "name": "GAOFEN-1",
        "group": "resource",
        "lat": -73.62084648174883,
        "lon": 82.73931275053378,
        "alt_km": 656.0667241403917,
        "timestamp": "2025-12-09T16:56:36.237068+00:00",
        "meta_object_name": "GAOFEN-1",
        "meta_object_id": "2013-018A",
        "meta_epoch": "2025-12-09T12:24:26.340192",
        "meta_mean_motion": 14.76527265,
        "meta_eccentricity": 0.0017976,
        "meta_inclination": 97.9327,
        "meta_ra_of_asc_node": 54.2332,
        "meta_arg_of_pericenter": 152.9116,
        "meta_mean_anomaly": 207.3036,
        "meta_ephemeris_type": 0,
        "meta_classification_type": "U",
        "meta_norad_cat_id": 39150,
        "meta_element_set_no": 999,
        "meta_rev_at_epoch": 68025,
        "meta_bstar": 0.00026111,
        "meta_mean_motion_dot": 1.774e-05,
        "meta_mean_motion_ddot": 0,
        "tle_line1": "1 39150U 13018A   25343.51697153  .00001774  00000+0  26111-3 0  9997",
        "tle_line2": "2 39150  97.9327  54.2332 0017976 152.9116 207.3036 14.76527265680258"
      },
      "geometry": {
        "type": "Point",
        "coordinates": [
          82.73931275053378,
          -73.62084648174883
        ]
      }
    }
  ]
}